{"type": "FeatureCollection", "features": [ {"type": "Feature", "properties": {"norad_id": 31269, "name": "FENGYUN 1C DEB", "group": "fengyun-1c-debris", "lat": -78.79615859475639, "lon": -0.7482348877299817, "alt_km": 585.0396007569398, "timestamp": "2025-12-13T18:50:04.712558+00:00", "meta": {"OBJECT_NAME": "FENGYUN 1C DEB", "OBJECT_ID": "1999-025BNB", "EPOCH": "2025-12-13T03:22:04.185408", "MEAN_MOTION": 14.43712576, "ECCENTRICITY": 0.02400178, "INCLINATION": 98.1796, "RA_OF_ASC_NODE": 225.1965, "ARG_OF_PERICENTER": 274.3198, "MEAN_ANOMALY": 240.9511, "EPHEMERIS_TYPE": 0, "CLASSIFICATION_TYPE": "U", "NORAD_CAT_ID": 31269, "ELEMENT_SET_NO": 999, "REV_AT_EPOCH": 96492, "BSTAR": 0.0030635404, "MEAN_MOTION_DOT": 0.00014766, "MEAN_MOTION_DDOT": 0}, "tle": {"line1": "1 31269U 99025BNB 25347.14032622  .00014766  00000+0  30635-2 0  9999", "line2": "2 31269  98.1796 225.1965 0240017 274.3198 240.9511 14.43712576964923"}}, "geometry": {"type": "Point", "coordinates": [-0.7482348877299817, -78.79615859475639]}}, {"type": "Feature", "properties": {"norad_id": 31272, "name": "FENGYUN 1C DEB", "group": "fengyun-1c-debris", "lat": -19.297649151723423, "lon": -137.16503120607436, "alt_km": 868.6845860098301, "timestamp": "2025-12-13T18:50:04.712569+00:00", "meta": {"OBJECT_NAME": "FENGYUN 1C DEB", "OBJECT_ID": "1999-025BNE", "EPOCH": "2025-12-12T09:10:29.413632", "MEAN_MOTION": 14.22918429, "ECCENTRICITY": 0.0106751, "INCLINATION": 99.0919, "RA_OF_ASC_NODE": 218.1733, "ARG_OF_PERICENTER": 113.8737, "MEAN_ANOMALY": 247.3669, "EPHEMERIS_TYPE": 0, "CLASSIFICATION_TYPE": "U", "NORAD_CAT_ID": 31272, "ELEMENT_SET_NO": 999, "REV_AT_EPOCH": 96984, "BSTAR": 0.00068391166, "MEAN_MOTION_DOT": 1.585e-05, "MEAN_MOTION_DDOT": 0}, "tle": {"line1": "1 31272U 99025BNE 25346.38228488  .00001585  00000+0  68391-3 0  9991", "line2": "2 31272  99.0919 218.1733 0106751 113.8737 247.3669 14.22918429969844"}}, "geometry": {"type": "Point", "coordinates": [-137.16503120607436, -19.297649151723423]}}, {"type": "Feature", "properties": {"norad_id": 31274, "name": "FENGYUN 1C DEB", "group": "fengyun-1c-debris", "lat": 27.09512990748148, "lon": 162.4611523737708, "alt_km": 907.5859545523463, "timestamp": "2025-12-13T18:50:04.712579+00:00", "meta": {"OBJECT_NAME": "FENGYUN 1C DEB", "OBJECT_ID": "1999-025BNG", "EPOCH": "2025-12-12T06:18:32.012928", "MEAN_MOTION": 13.85625998, "ECCENTRICITY": 0.02381986, "INCLINATION": 99.0045, "RA_OF_ASC_NODE": 165.6507, "ARG_OF_PERICENTER": 111.3566, "MEAN_ANOMALY": 251.319, "EPHEMERIS_TYPE": 0, "CLASSIFICATION_TYPE": "U", "NORAD_CAT_ID": 31274, "ELEMENT_SET_NO": 999, "REV_AT_EPOCH": 94200, "BSTAR": 0.0012680057, "MEAN_MOTION_DOT": 1.769e-05, "MEAN_MOTION_DDOT": 0}, "tle": {"line1": "1 31274U 99025BNG 25346.26287052  .00001769  00000+0  12680-2 0  9995", "line2": "2 31274  99.0045 165.6507 0238198 111.3566 251.3190 13.85625998942002"}}, "geometry": {"type": "Point", "coordinates": [162.4611523737708, 27.09512990748148]}}, {"type": "Feature", "properties": {"norad_id": 31275, "name": "FENGYUN 1C DEB", "group": "fengyun-1c-debris", "lat": -72.48871141419919, "lon": 61.0497620287338, "alt_km": 860.6406316088214, "timestamp": "2025-12-13T18:50:04.712589+00:00", "meta": {"OBJECT_NAME": "FENGYUN 1C DEB", "OBJECT_ID": "1999-025BNH", "EPOCH": "2025-12-11T08:57:52.363008", "MEAN_MOTION": 14.02315965, "ECCENTRICITY": 0.01038444, "INCLINATION": 98.9462, "RA_OF_ASC_NODE": 28.7324, "ARG_OF_PERICENTER": 356.964, "MEAN_ANOMALY": 3.0884, "EPHEMERIS_TYPE": 0, "CLASSIFICATION_TYPE": "U", "NORAD_CAT_ID": 31275, "ELEMENT_SET_NO": 999, "REV_AT_EPOCH": 95467, "BSTAR": 0.0013217872, "MEAN_MOTION_DOT": 2.082e-05, "MEAN_MOTION_DDOT": 0}, "tle": {"line1": "1 31275U 99025BNH 25345.37352272  .00002082  00000+0  13218-2 0  9991", "line2": "2 31275  98.9462  28.7324 0103844 356.9640   3.0884 14.02315965954677"}}, "geometry": {"type": "Point", "coordinates": [61.0497620287338, -72.48871141419919]}}, {"type": "Feature", "properties": {"norad_id": 31279, "name": "FENGYUN 1C DEB", "group": "fengyun-1c-debris", "lat": 5.454513568552521, "lon": 176.86317475687167, "alt_km": 753.2658769524005, "timestamp": "2025-12-13T18:50:04.712600+00:00", "meta": {"OBJECT_NAME": "FENGYUN 1C DEB", "OBJECT_ID": "1999-025BNM", "EPOCH": "2025-12-13T06:14:04.668000", "MEAN_MOTION": 14.26309993, "ECCENTRICITY": 0.00737949, "INCLINATION": 98.5172, "RA_OF_ASC_NODE": 355.5327, "ARG_OF_PERICENTER": 176.1147, "MEAN_ANOMALY": 184.0623, "EPHEMERIS_TYPE": 0, "CLASSIFICATION_TYPE": "U", "NORAD_CAT_ID": 31279, "ELEMENT_SET_NO": 999, "REV_AT_EPOCH": 97236, "BSTAR": 0.00072823892, "MEAN_MOTION_DOT": 1.757e-05, "MEAN_MOTION_DDOT": 0}, "tle": {"line1": "1 31279U 99025BNM 25347.25977625  .00001757  00000+0  72824-3 0  9996", "line2": "2 31279  98.5172 355.5327 0073794 176.1147 184.0623 14.26309993972360"}}, "geometry": {"type": "Point", "coordinates": [176.86317475687167, 5.454513568552521]}}, {"type": "Feature", "properties": {"norad_id": 31281, "name": "FENGYUN 1C DEB", "group": "fengyun-1c-debris", "lat": 79.257925715091, "lon": -5.9491467092206465, "alt_km": 428.6329057778685, "timestamp": "2025-12-13T18:50:04.712611+00:00", "meta": {"OBJECT_NAME": "FENGYUN 1C DEB", "OBJECT_ID": "1999-025BNP", "EPOCH": "2025-12-13T02:35:26.612160", "MEAN_MOTION": 15.17418933, "ECCENTRICITY": 0.01137239, "INCLINATION": 98.3848, "RA_OF_ASC_NODE": 122.2711, "ARG_OF_PERICENTER": 90.3673, "MEAN_ANOMALY": 271.059, "EPHEMERIS_TYPE": 0, "CLASSIFICATION_TYPE": "U", "NORAD_CAT_ID": 31281, "ELEMENT_SET_NO": 999, "REV_AT_EPOCH": 99737, "BSTAR": 0.0018487691, "MEAN_MOTION_DOT": 0.00043882, "MEAN_MOTION_DDOT": 0}, "tle": {"line1": "1 31281U 99025BNP 25347.10794690  .00043882  00000+0  18488-2 0  9992", "line2": "2 31281  98.3848 122.2711 0113723  90.3673 271.0590 15.17418933997379"}}, "geometry": {"type": "Point", "coordinates": [-5.9491467092206465, 79.257925715091]}}, {"type": "Feature", "properties": {"norad_id": 31282, "name": "FENGYUN 1C DEB", "group": "fengyun-1c-debris", "lat": -12.379590135302887, "lon": 83.10156019777524, "alt_km": 751.8673646404814, "timestamp": "2025-12-13T18:50:04.712622+00:00", "meta": {"OBJECT_NAME": "FENGYUN 1C DEB", "OBJECT_ID": "1999-025BNQ", "EPOCH": "2025-12-12T11:59:16.641888", "MEAN_MOTION": 14.43467925, "ECCENTRICITY": 0.01270675, "INCLINATION": 99.2168, "RA_OF_ASC_NODE": 263.7536, "ARG_OF_PERICENTER": 287.209, "MEAN_ANOMALY": 71.5222, "EPHEMERIS_TYPE": 0, "CLASSIFICATION_TYPE": "U", "NORAD_CAT_ID": 31282, "ELEMENT_SET_NO": 999, "REV_AT_EPOCH": 97117, "BSTAR": 0.00040716141, "MEAN_MOTION_DOT": 1.46e-05, "MEAN_MOTION_DDOT": 0}, "tle": {"line1": "1 31282U 99025BNQ 25346.49949817  .00001460  00000+0  40716-3 0  9993", "line2": "2 31282  99.2168 263.7536 0127067 287.2090  71.5222 14.43467925971175"}}, "geometry": {"type": "Point", "coordinates": [83.10156019777524, -12.379590135302887]}}, {"type": "Feature", "properties": {"norad_id": 31284, "name": "FENGYUN 1C DEB", "group": "fengyun-1c-debris", "lat": -54.95677677107693, "lon": 96.39106416658991, "alt_km": 945.7837740179366, "timestamp": "2025-12-13T18:50:04.712633+00:00", "meta": {"OBJECT_NAME": "FENGYUN 1C DEB", "OBJECT_ID": "1999-025BNS", "EPOCH": "2025-12-12T12:10:56.094816", "MEAN_MOTION": 13.97898481, "ECCENTRICITY": 0.01429897, "INCLINATION": 99.7223, "RA_OF_ASC_NODE": 80.8899, "ARG_OF_PERICENTER": 59.3659, "MEAN_ANOMALY": 302.1512, "EPHEMERIS_TYPE": 0, "CLASSIFICATION_TYPE": "U", "NORAD_CAT_ID": 31284, "ELEMENT_SET_NO": 999, "REV_AT_EPOCH": 95159, "BSTAR": 0.00078444655, "MEAN_MOTION_DOT": 1.164e-05, "MEAN_MOTION_DDOT": 0}, "tle": {"line1": "1 31284U 99025BNS 25346.50759369  .00001164  00000+0  78445-3 0  9999", "line2": "2 31284  99.7223  80.8899 0142989  59.3659 302.1512 13.97898481951595"}}, "geometry": {"type": "Point", "coordinates": [96.39106416658991, -54.95677677107693]}}, {"type": "Feature", "properties": {"norad_id": 31285, "name": "FENGYUN 1C DEB", "group": "fengyun-1c-debris", "lat": 35.168106476635764, "lon": -37.89201556894944, "alt_km": 923.5268204601152, "timestamp": "2025-12-13T18:50:04.712643+00:00", "meta": {"OBJECT_NAME": "FENGYUN 1C DEB", "OBJECT_ID": "1999-025BNT", "EPOCH": "2025-12-11T10:09:15.203232", "MEAN_MOTION": 14.26037895, "ECCENTRICITY": 0.01996034, "INCLINATION": 98.5188, "RA_OF_ASC_NODE": 325.8722, "ARG_OF_PERICENTER": 190.7189, "MEAN_ANOMALY": 328.8482, "EPHEMERIS_TYPE": 0, "CLASSIFICATION_TYPE": "U", "NORAD_CAT_ID": 31285, "ELEMENT_SET_NO": 999, "REV_AT_EPOCH": 97280, "BSTAR": 0.00028481858, "MEAN_MOTION_DOT": 7.92e-06, "MEAN_MOTION_DDOT": 0}, "tle": {"line1": "1 31285U 99025BNT 25345.42309263  .00000792  00000+0  28482-3 0  9996", "line2": "2 31285  98.5188 325.8722 0199603 190.7189 328.8482 14.26037895972808"}}, "geometry": {"type": "Point", "coordinates": [-37.89201556894944, 35.168106476635764]}}, {"type": "Feature", "properties": {"norad_id": 31286, "name": "FENGYUN 1C DEB", "group": "fengyun-1c-debris", "lat": 30.39242584164543, "lon": 65.1054223227576, "alt_km": 849.4677710286896, "timestamp": "2025-12-13T18:50:04.712672+00:00", "meta": {"OBJECT_NAME": "FENGYUN 1C DEB", "OBJECT_ID": "1999-025BNU", "EPOCH": "2025-12-12T11:45:00.592416", "MEAN_MOTION": 14.22753144, "ECCENTRICITY": 0.00802109, "INCLINATION": 100.8574, "RA_OF_ASC_NODE": 237.0493, "ARG_OF_PERICENTER": 280.368, "MEAN_ANOMALY": 78.8457, "EPHEMERIS_TYPE": 0, "CLASSIFICATION_TYPE": "U", "NORAD_CAT_ID": 31286, "ELEMENT_SET_NO": 999, "REV_AT_EPOCH": 64016, "BSTAR": 0.0045153979, "MEAN_MOTION_DOT": 0.00010416, "MEAN_MOTION_DDOT": 0}, "tle": {"line1": "1 31286U 99025BNU 25346.48959019  .00010416  00000+0  45154-2 0  9992", "line2": "2 31286 100.8574 237.0493 0080210 280.3680  78.8457 14.22753144640162"}}, "geometry": {"type": "Point", "coordinates": [65.1054223227576, 30.39242584164543]}}]}